CANX-4                  
1 40055U 14034C   24236.54217303  .00002890  00000+0  40363-3 0  9995
2 40055  98.3911  74.0991 0012924 341.2847  18.7886 14.78441438546506
CANX-5                  
1 40056U 14034D   24236.54690924  .00002946  00000+0  41118-3 0  9991
2 40056  98.3912  74.1108 0012931 341.4864  18.5874 14.78451330537314
UKUBE-1                 
1 40074U 14037F   24236.55625871  .00014229  00000+0  12910-2 0  9998
2 40074  98.3417 170.6879 0003899 176.0258 184.0992 14.95423162548844
BRITE-PL2 (HEWELIUSZ)   
1 40119U 14049B   24236.54626228  .00005352  00000+0  56661-3 0  9996
2 40119  97.8845 335.9400 0016437 140.0075 220.2356 14.89475895542607
AEROCUBE 5C             
1 40965U 15058B   24236.49135237  .00007467  00000+0  66372-3 0  9994
2 40965  64.7700 154.9051 0192113 287.7677  70.2550 14.83681001267024
AEROCUBE 7              
1 40966U 15058C   24236.48418017  .00009089  00000+0  77327-3 0  9998
2 40966  64.7674 148.0439 0186630 287.3328  70.7442 14.85782795267103
FOX-1A (AO-85)          
1 40967U 15058D   24236.51183990  .00007962  00000+0  72067-3 0  9996
2 40967  64.7779 168.9581 0191117 283.5699  74.4185 14.83078811 14979
SINOD-D 1               
1 40968U 15058E   24236.52370482  .00009681  00000+0  83702-3 0  9990
2 40968  64.7778 161.0182 0185276 282.4963  75.5474 14.85313776 17814
SNAP-3 ALICE            
1 40970U 15058G   24236.01821303  .00024211  00000+0  15603-2 0  9990
2 40970  64.7696 115.6800 0153194 280.2412  78.1460 14.99059822 15790
LMRST-SAT               
1 40971U 15058H   24236.15222259  .00008339  00000+0  75237-3 0  9994
2 40971  64.7770 165.6015 0192311 285.0861  72.9041 14.83008408 14920
SNAP-3 EDDIE            
1 40972U 15058J   24236.07877247  .00023918  00000+0  15231-2 0  9996
2 40972  64.7669 108.7643 0153368 281.1645  77.2263 14.99462177 17908
PROPCUBE 3              
1 40973U 15058K   24236.16096953  .00009206  00000+0  79542-3 0  9994
2 40973  64.7714 152.7566 0188626 286.3752  71.6693 14.84963688 15971
BISONSAT                
1 40974U 15058L   24236.06551813  .00016182  00000+0  11786-2 0  9991
2 40974  64.7671 124.9135 0168065 283.8696  74.3770 14.93227401 15748
SNAP-3 JIMI             
1 40975U 15058M   24235.83139790  .00012018  00000+0  96551-3 0  9990
2 40975  64.7693 140.7760 0179922 285.3676  72.7618 14.88476612 14940
PROPCUBE 1 (FLORA)      
1 40976U 15058N   24236.33372143  .00009182  00000+0  85850-3 0  9996
2 40976  64.7760 180.8392 0190636 286.2999  71.7217 14.81824164 17742
SINOD-D 3               
1 40977U 15058P   24236.43177646  .00010622  00000+0  95078-3 0  9993
2 40977  64.7750 173.1791 0184693 285.4144  72.6629 14.84049698 16008
HORYU-4                 
1 41340U 16012D   24236.42823239  .00021268  00000+0  98576-3 0  9998
2 41340  31.0009 256.6709 0008633 289.6508  70.3201 15.18876471468379
RAVAN                   
1 41849U 16067B   24236.48130502  .00017350  00000+0  90133-3 0  9990
2 41849  98.0672  58.2250 0012898 156.5485 203.6337 15.16099327426171
CELTEE 1                
1 41850U 16067C   24236.42279859  .00011629  00000+0  76357-3 0  9990
2 41850  98.1086  49.4517 0000909  23.0342 337.0925 15.07811048425559
OPTICUBE 04             
1 41851U 16067D   24236.52422057  .00006217  00000+0  45957-3 0  9991
2 41851  98.0841  44.3356 0017719 185.2016 174.9027 15.03473425425357
AEROCUBE 8D             
1 41852U 16067E   24236.41995374  .00013667  00000+0  86168-3 0  9993
2 41852  98.1131  49.3847 0004166 236.5993 123.4836 15.09255667425536
AEROCUBE 8C             
1 41853U 16067F   24236.43541406  .00015147  00000+0  95452-3 0  9990
2 41853  98.0942  47.8136 0007693 168.8882 191.2517 15.09229665425529
PROMETHEUS 2-1          
1 41854U 16067G   24236.44652824  .00032668  00000+0  15005-2 0  9991
2 41854  98.1025  56.3606 0011783 186.5244 173.5838 15.20262458425949
PROMETHEUS 2-3          
1 41855U 16067H   24236.44448979  .00032846  00000+0  15115-2 0  9996
2 41855  98.0959  55.7820 0010016 196.4594 163.6316 15.20213941425946
AALTO-1                 
1 42775U 17036L   24236.55877860  .00817162  33011-3  13744-2 0  9992
2 42775  97.0837 268.1513 0005623 216.8398 143.2497 16.02838767399740
CORVUS BC2              
1 42846U 17042X   24236.45171957  .00008310  00000+0  69811-3 0  9993
2 42846  97.3753  57.8431 0008245 178.8502 181.2742 14.98519641387515
CORVUS BC1              
1 42847U 17042Y   24236.47254434  .00007543  00000+0  63149-3 0  9993
2 42847  97.3775  58.2758 0007452 176.6294 183.4981 14.98690938387530
MIRATA                  
1 43015U 17073C   24236.62634185  .00041386  00000+0  17687-2 0  9995
2 43015  97.5838 120.7146 0159899  30.7479 330.3000 15.11823752366501
MAKERSAT 0              
1 43016U 17073D   24236.56734430  .00023792  00000+0  12823-2 0  9991
2 43016  97.5690 113.7379 0189321  54.9801 306.9027 15.00633312366011
GOMX-4B                 
1 43196U 18015E   24236.55679509  .00176010  00000+0  10061-2 0  9995
2 43196  97.6044  55.9560 0003549  43.4396 316.7149 15.78365066366097
SIRION PATHFINDER-2     
1 43759U 18099B   24236.59035681  .00008516  00000+0  62166-3 0  9992
2 43759  97.5212 290.8629 0011963  63.2647 296.9802 15.03861870312630
CORVUS BC4              
1 43767U 18099K   24236.58962231  .00007373  00000+0  55021-3 0  9992
2 43767  97.5059 287.8671 0012170 112.0410 248.2110 15.03074583312519
MOVE-II                 
1 43780U 18099Y   24236.41502363  .00039139  00000+0  18156-2 0  9997
2 43780  97.5144 298.9259 0006946 110.1610 250.0373 15.19914284313127
SPACEBEE-7              
1 43816U 18099BL  24236.14273297  .00028893  00000+0  15712-2 0  9998
2 43816  97.5420 299.1220 0009787  63.5430 296.6805 15.14387192312539
SPACEBEE-6              
1 43818U 18099BN  24236.41829934  .00076878  00000+0  26037-2 0  9993
2 43818  97.5340 306.0537 0006177  58.3678 301.8164 15.30261218313162
SHIELDS 1               
1 43850U 18104B   24236.42391091  .00024811  00000+0  61285-3 0  9990
2 43850  85.0189 237.3849 0011536 162.9740 197.1901 15.40292633316502
SONATE                  
1 44400U 19038Q   24236.24330194  .00037213  00000+0  98697-3 0  9993
2 44400  97.7147 233.5174 0013559 215.2990 144.7357 15.38133701284372
LUCKY-7                 
1 44406U 19038W   24236.54556055  .00079589  00000+0  13013-2 0  9998
2 44406  97.7026 239.0845 0012045 186.6923 173.4170 15.52179508284784
DUCHIFAT-3              
1 44854U 19089C   24236.55732360  .00028149  00000+0  12957-2 0  9999
2 44854  36.9569 359.1530 0005965 312.5125  47.5119 15.19494217258516
M2 PATHFINDER           
1 45727U 20037E   24236.47417540  .00005961  00000+0  51058-3 0  9998
2 45727  97.7804  52.5982 0010406 259.6337 100.3712 14.97895622226017
NETSAT-4                
1 46504U 20068U   24236.45968317  .00016242  00000+0  82118-3 0  9992
2 46504  97.8106 195.5190 0011955 125.0772 235.1583 15.17076042214363
NETSAT-3                
1 46505U 20068V   24236.40496651  .00017923  00000+0  92136-3 0  9993
2 46505  97.8082 194.8828 0011192 131.3783 228.8413 15.16475057214349
NETSAT-1                
1 46506U 20068W   24236.46860127  .00012294  00000+0  67025-3 0  9998
2 46506  97.8105 194.2514 0009646 139.2185 220.9770 15.14498036214301
NETSAT-2                
1 46507U 20068X   24236.61125745  .00015931  00000+0  80689-3 0  9998
2 46507  97.8094 195.2861 0008886 140.1857 220.0029 15.17044560214330
WILDTRACKCUBE-SIMBA     
1 47941U 21022K   24236.60053641  .00025772  00000+0  10573-2 0  9994
2 47941  97.4499 132.8459 0011987 265.9673  94.0194 15.24156742188725
GRBALPHA                
1 47959U 21022AD  24236.56243403  .00035530  00000+0  12241-2 0  9992
2 47959  97.4496 135.1546 0010061 252.3265 107.6877 15.29889876187693
BCCSAT-1                
1 48041U 21022AK  24236.53533484  .00323671  00000+0  25173-2 0  9997
2 48041  97.4467 146.7422 0009804 148.8921 211.2924 15.70739765188419
BEESAT-8                
1 48085U 21022AP  24236.17052104  .00055367  00000+0  14700-2 0  9998
2 48085  97.4691 139.1530 0008123 230.0527 130.0005 15.38064568188156
LEDSAT                  
1 49069U 21073D   24236.45481913  .00031078  00000+0  11270-2 0  9994
2 49069  97.4320 307.2534 0018145  49.7429 310.5394 15.28133137166713
ROBUSTA-1F (MTCUBE 2)   
1 53109U 22080E   24236.17371277 -.00000003  00000+0  00000+0 0  9994
2 53109  70.1273 168.8330 0007797  73.3952 286.7564  6.42584270 49467
SITRO-AIS 5 (KATYS)     
1 57176U 23091L   24236.58818027  .00012784  00000+0  78613-3 0  9996
2 57176  97.6060 288.2379 0015948 248.0946 111.8588 15.10071690 63668
SITRO-AIS 6 (CHIRKIN)   
1 57192U 23091AC  24236.57079328  .00013499  00000+0  82873-3 0  9993
2 57192  97.6056 288.2491 0015964 248.1728 111.7803 15.10119770 63664
SITRO-AIS 8 (ANOKHIN)   
1 57193U 23091AD  24236.58860170  .00013356  00000+0  81035-3 0  9999
2 57193  97.6057 288.3700 0015486 248.6057 111.3520 15.10556807 63678
SITRO-AIS 7 (FARTUSHNIY)
1 57194U 23091AE  24236.57803945  .00013143  00000+0  80833-3 0  9995
2 57194  97.6054 288.2319 0015760 248.8733 111.0812 15.10062567 63664
SITRO-AIS 10 (BURDAEV)  
1 57199U 23091AK  24236.60816747  .00015467  00000+0  88940-3 0  9996
2 57199  97.6076 289.4970 0010981 233.2559 126.7664 15.12515117 63746
SITRO-AIS 9 (SHCHUKIN)  
1 57201U 23091AM  24236.60739566  .00015851  00000+0  91198-3 0  9999
2 57201  97.6071 289.4707 0010936 233.1663 126.8565 15.12489850 63743
SITRO-AIS 12 (SMIRENNIY)
1 57204U 23091AQ  24236.56129814  .00016458  00000+0  94159-3 0  9990
2 57204  97.6078 289.5829 0011096 227.7578 132.2712 15.12682951 63743
SITRO-AIS 11 (SHEFFER)  
1 57208U 23091AU  24236.60906614  .00016200  00000+0  92412-3 0  9995
2 57208  97.6077 289.6609 0010853 226.9788 133.0534 15.12793776 63757
